{"type":"FeatureCollection","features":[{"type":"Feature","properties":{"codarea":"BR","fonte":"IBGE - API de malhas geográficas v3","base":"malha municipal em qualidade máxima, limites dissolvidos","detalhe":"mascara-fixa-seguranca","bufferKm":12},"geometry":{"type":"MultiPolygon","coordinates":[[[[-28.966109,-20.494526],[-28.930302,-20.57212],[-28.841666,-20.602332],[-28.760626,-20.566946],[-28.738059,-20.530494],[-28.7329,-20.471002],[-28.769638,-20.398143],[-28.860913,-20.362841],[-28.910207,-20.37482],[-28.949539,-20.406243],[-28.968372,-20.443421],[-28.966109,-20.494526]]],[[[-29.457638,-20.486347],[-29.456413,-20.531064],[-29.435064,-20.57149],[-29.360653,-20.627788],[-29.253774,-20.623859],[-29.218364,-20.602199],[-29.184595,-20.532022],[-29.190279,-20.485966],[-29.218793,-20.443078],[-29.280334,-20.395889],[-29.320869,-20.384228],[-29.41437,-20.407486],[-29.444198,-20.439151],[-29.457638,-20.486347]]],[[[-32.418381,-3.707056],[-32.541151,-3.793719],[-32.581665,-3.861615],[-32.564621,-3.937536],[-32.499245,-3.980307],[-32.390894,-3.977418],[-32.33015,-3.938192],[-32.286754,-3.874424],[-32.270426,-3.809718],[-32.298014,-3.733612],[-32.333805,-3.707767],[-32.418381,-3.707056]]],[[[-74.070915,-7.464075],[-74.09544,-7.507724],[-74.089141,-7.587961],[-74.069497,-7.628842],[-73.862961,-7.814285],[-73.880629,-7.90359],[-73.87209,-7.94154],[-73.806276,-8.043167],[-73.762729,-8.06712],[-73.696382,-8.143033],[-73.703885,-8.20955],[-73.691743,-8.25379],[-73.647525,-8.302693],[-73.636747,-8.386269],[-73.585775,-8.448428],[-73.498498,-8.496864],[-73.446622,-8.555595],[-73.451103,-8.619877],[-73.4279,-8.678644],[-73.32188,-8.766481],[-73.240367,-8.791237],[-73.155623,-8.948976],[-73.064491,-9.02423],[-73.053682,-9.073045],[-73.171967,-9.177735],[-73.212672,-9.243443],[-73.282683,-9.307541],[-73.312458,-9.368844],[-73.321024,-9.414855],[-73.287077,-9.48735],[-73.210714,-9.517193],[-72.771447,-9.517335],[-72.51897,-9.597222],[-72.418538,-9.591671],[-72.364307,-9.677689],[-72.379379,-9.729408],[-72.358007,-9.809473],[-72.268187,-9.867515],[-72.290133,-9.985042],[-72.28114,-10.040569],[-72.221448,-10.097632],[-72.179587,-10.105716],[-71.376181,-10.105882],[-71.190476,-10.070659],[-71.122273,-10.029505],[-71.07886,-9.953444],[-70.922121,-9.897587],[-70.888498,-9.838814],[-70.844922,-9.814809],[-70.792672,-9.750969],[-70.731614,-9.726603],[-70.684655,-9.683387],[-70.666258,-9.71229],[-70.731054,-9.799991],[-70.730854,-10.998523],[-70.702493,-11.070131],[-70.631709,-11.105049],[-70.540589,-11.074574],[-70.502376,-11.124368],[-70.466403,-11.14121],[-70.379708,-11.167549],[-70.27379,-11.171593],[-70.13159,-11.145473],[-70.052782,-11.097938],[-69.890615,-11.034074],[-69.826547,-11.037303],[-69.773973,-11.0754],[-69.729877,-11.082097],[-69.571822,-11.056743],[-69.252681,-11.056658],[-69.002213,-11.117385],[-68.856162,-11.125102],[-68.781414,-11.230782],[-68.739525,-11.249401],[-68.520352,-11.215667],[-68.433789,-11.154998],[-68.374981,-11.156297],[-68.216036,-11.07743],[-68.144293,-11.011662],[-68.10016,-10.926527],[-68.025948,-10.851476],[-67.989944,-10.766938],[-67.877273,-10.752143],[-67.746572,-10.818891],[-67.657106,-10.805427],[-67.624534,-10.780416],[-67.588852,-10.696927],[-67.508683,-10.598925],[-67.387943,-10.543796],[-67.335059,-10.496299],[-67.25634,-10.468956],[-67.222997,-10.438256],[-67.138979,-10.439385],[-66.959569,-10.350624],[-66.808115,-10.185946],[-66.722121,-10.115181],[-66.518077,-9.990951],[-66.389952,-10.000582],[-66.294913,-9.950124],[-66.173825,-9.937539],[-66.12933,-9.913437],[-65.981672,-9.91563],[-65.902504,-9.891621],[-65.772117,-9.894855],[-65.655734,-9.939904],[-65.526907,-9.947284],[-65.488673,-9.927745],[-65.420504,-9.852422],[-65.44254,-9.966799],[-65.408791,-10.209397],[-65.481759,-10.312815],[-65.538132,-10.48779],[-65.517577,-10.580247],[-65.523921,-10.641981],[-65.463547,-10.731608],[-65.473234,-10.822747],[-65.431242,-10.882682],[-65.39303,-10.903026],[-65.386249,-10.96663],[-65.47244,-11.129632],[-65.466541,-11.281968],[-65.414622,-11.520543],[-65.40139,-11.552321],[-65.33888,-11.60712],[-65.366631,-11.673382],[-65.360889,-11.751556],[-65.300931,-11.81786],[-65.180986,-11.862203],[-65.134427,-12.033666],[-65.103198,-12.076805],[-64.945334,-12.131143],[-64.924561,-12.180559],[-64.886974,-12.214637],[-64.619998,-12.323772],[-64.614418,-12.388169],[-64.583029,-12.437008],[-64.481547,-12.5269],[-64.381493,-12.562469],[-64.329661,-12.601542],[-64.291966,-12.609934],[-64.234304,-12.597232],[-64.156431,-12.621212],[-64.091041,-12.608565],[-63.970491,-12.637159],[-63.909029,-12.630392],[-63.816188,-12.568938],[-63.741347,-12.547387],[-63.625021,-12.595912],[-63.574192,-12.648055],[-63.409913,-12.75921],[-63.252876,-12.796197],[-63.176038,-12.77813],[-63.135886,-12.817626],[-63.088743,-12.912218],[-63.029198,-12.954002],[-62.962324,-12.965341],[-62.91176,-13.034737],[-62.826011,-13.104111],[-62.750666,-13.127914],[-62.685,-13.11763],[-62.580756,-13.176194],[-62.501761,-13.190389],[-62.455198,-13.22795],[-62.388399,-13.246833],[-62.27931,-13.262983],[-62.225369,-13.255325],[-62.206605,-13.319915],[-62.058452,-13.47167],[-61.991689,-13.512826],[-61.96609,-13.579978],[-61.898656,-13.640656],[-61.819828,-13.654291],[-61.740461,-13.646742],[-61.678156,-13.620325],[-61.606172,-13.620774],[-61.488271,-13.661204],[-61.293877,-13.613031],[-61.220967,-13.64066],[-61.074225,-13.633023],[-60.990068,-13.65672],[-60.957181,-13.694522],[-60.837037,-13.769483],[-60.688385,-13.841183],[-60.64107,-13.848424],[-60.600406,-13.875696],[-60.536477,-14.002392],[-60.580976,-14.049407],[-60.602921,-14.205748],[-60.501266,-14.480615],[-60.451206,-14.555195],[-60.412795,-14.674423],[-60.3805,-14.701617],[-60.36333,-14.990046],[-60.617006,-14.997649],[-60.677174,-15.052513],[-60.681545,-15.132129],[-60.34825,-15.518069],[-60.286159,-16.275465],[-60.251333,-16.345152],[-60.176563,-16.374402],[-58.464361,-16.429131],[-58.46035,-16.471767],[-58.520896,-16.524049],[-58.566647,-16.611061],[-58.591245,-16.817886],[-58.576169,-16.987803],[-58.505852,-17.071681],[-58.509174,-17.207385],[-58.352755,-17.412542],[-58.222134,-17.491458],[-58.198388,-17.526234],[-58.033995,-17.61725],[-57.96161,-17.61801],[-57.906317,-17.59364],[-57.883772,-17.690873],[-57.829984,-17.769959],[-57.821233,-17.880154],[-57.706244,-18.083448],[-57.660531,-18.198495],[-57.875799,-18.868739],[-57.880291,-18.908361],[-57.861225,-18.956987],[-58.235582,-19.715104],[-58.245899,-19.760512],[-58.234958,-19.805719],[-58.204776,-19.842329],[-58.05667,-19.957939],[-58.227954,-20.071825],[-58.274508,-20.124725],[-58.278036,-20.26222],[-58.251495,-20.328488],[-58.210151,-20.360882],[-58.176334,-20.438267],[-58.130902,-20.479905],[-58.122563,-20.644785],[-58.072174,-20.771416],[-58.068597,-20.833415],[-58.04005,-20.873874],[-58.025784,-20.957787],[-57.972134,-20.999674],[-57.983106,-21.052013],[-57.972543,-21.17752],[-58.030124,-21.243386],[-58.03694,-21.288292],[-58.009423,-21.351643],[-58.083233,-21.516165],[-58.043693,-21.685577],[-58.063224,-21.749442],[-58.055919,-21.775233],[-58.087514,-21.846667],[-58.063735,-21.925827],[-58.123898,-22.023948],[-58.102398,-22.130399],[-58.045224,-22.186084],[-57.930853,-22.231135],[-57.776018,-22.255974],[-57.682961,-22.228234],[-57.640903,-22.267762],[-57.475786,-22.300083],[-57.350818,-22.349666],[-57.233503,-22.358951],[-57.160853,-22.340909],[-57.088731,-22.358585],[-57.0148,-22.345979],[-56.847684,-22.409275],[-56.738091,-22.371149],[-56.596935,-22.364321],[-56.452092,-22.23866],[-56.403972,-22.289517],[-56.254339,-22.377666],[-56.171812,-22.395974],[-55.923606,-22.396225],[-55.867206,-22.468828],[-55.828888,-22.59824],[-55.731699,-22.687684],[-55.782498,-22.848991],[-55.754015,-23.047123],[-55.706657,-23.189881],[-55.659178,-23.241471],[-55.66969,-23.341928],[-55.642172,-23.390257],[-55.677936,-23.460509],[-55.65144,-23.569526],[-55.653201,-23.653458],[-55.636338,-23.686921],[-55.578826,-23.726036],[-55.560691,-23.779011],[-55.57071,-23.83076],[-55.555204,-23.876959],[-55.560578,-23.942428],[-55.510337,-24.027318],[-55.475405,-24.059349],[-55.396783,-24.091297],[-55.301215,-24.0959],[-55.227414,-24.121827],[-55.106739,-24.090631],[-55.03153,-24.097294],[-54.97979,-24.070625],[-54.918978,-24.074359],[-54.746323,-23.976146],[-54.643058,-23.954935],[-54.519581,-24.005787],[-54.444681,-24.07701],[-54.461886,-24.140739],[-54.441991,-24.265868],[-54.38064,-24.351049],[-54.442015,-24.443794],[-54.453898,-24.514253],[-54.43669,-24.59153],[-54.446383,-24.663231],[-54.506346,-24.759185],[-54.550106,-24.910072],[-54.581423,-25.059896],[-54.569513,-25.142434],[-54.60518,-25.244664],[-54.672305,-25.32095],[-54.734872,-25.425383],[-54.701402,-25.637865],[-54.672213,-25.67331],[-54.545763,-25.733872],[-54.496105,-25.788219],[-54.440185,-25.804723],[-54.344719,-25.773711],[-54.287651,-25.697483],[-54.186507,-25.691845],[-54.137452,-25.721119],[-54.04819,-25.716048],[-53.987353,-25.74902],[-53.962797,-25.814658],[-53.967062,-25.903082],[-53.948526,-26.007844],[-53.860694,-26.10151],[-53.845147,-26.169765],[-53.771592,-26.236214],[-53.767959,-26.256624],[-53.829111,-26.378568],[-53.823707,-26.427625],[-53.876097,-26.614395],[-53.876729,-26.738411],[-53.814045,-26.87875],[-53.905866,-26.986611],[-53.920796,-27.028874],[-54.027039,-27.068049],[-54.118232,-27.156337],[-54.186052,-27.147584],[-54.254485,-27.174809],[-54.301167,-27.232228],[-54.320097,-27.296984],[-54.438383,-27.300265],[-54.551592,-27.34883],[-54.646496,-27.363004],[-54.759474,-27.431572],[-54.808484,-27.422144],[-54.888055,-27.448259],[-54.944441,-27.531405],[-55.000588,-27.574635],[-55.021387,-27.609023],[-55.026265,-27.66443],[-55.134857,-27.682364],[-55.197657,-27.751518],[-55.231228,-27.753235],[-55.323689,-27.815511],[-55.403668,-27.845031],[-55.494601,-27.939448],[-55.502978,-27.969481],[-55.545639,-27.978999],[-55.589417,-28.011727],[-55.674405,-28.02612],[-55.758572,-28.124693],[-55.843134,-28.155094],[-55.882075,-28.194962],[-55.902529,-28.256346],[-55.945573,-28.272202],[-55.98596,-28.311919],[-56.020352,-28.39561],[-56.058695,-28.407946],[-56.124044,-28.463212],[-56.144283,-28.555803],[-56.25761,-28.670842],[-56.342782,-28.695269],[-56.391017,-28.735303],[-56.420205,-28.792906],[-56.419693,-28.84931],[-56.493064,-28.897401],[-56.536812,-28.98598],[-56.660581,-29.033093],[-56.689032,-29.058895],[-56.761565,-29.16651],[-56.784421,-29.265722],[-56.871045,-29.320028],[-56.910284,-29.408944],[-57,-29.469815],[-57.12205,-29.619106],[-57.180107,-29.667254],[-57.275934,-29.679421],[-57.384078,-29.757906],[-57.442239,-29.842493],[-57.449031,-29.927282],[-57.516416,-29.975113],[-57.59181,-30.060661],[-57.68431,-30.077438],[-57.731533,-30.104114],[-57.772844,-30.185403],[-57.76575,-30.22669],[-57.736553,-30.26675],[-57.680525,-30.295399],[-57.607974,-30.369219],[-57.393113,-30.412431],[-57.327423,-30.393487],[-57.169861,-30.38831],[-57.118773,-30.362174],[-57.060055,-30.302601],[-57.035411,-30.22427],[-57.015787,-30.209189],[-56.882893,-30.217199],[-56.751842,-30.299582],[-56.720028,-30.363471],[-56.516215,-30.517053],[-56.47629,-30.570684],[-56.283448,-30.696899],[-56.233315,-30.796367],[-56.128105,-30.864235],[-56.134433,-31.09536],[-56.084162,-31.169296],[-55.938476,-31.194858],[-55.832954,-31.17589],[-55.573586,-31.02205],[-55.500135,-31.102801],[-55.466097,-31.119555],[-55.440332,-31.195762],[-55.402111,-31.224743],[-55.322884,-31.341594],[-55.124738,-31.431056],[-55.046178,-31.437749],[-54.901228,-31.534409],[-54.857094,-31.548379],[-54.764367,-31.538677],[-54.657319,-31.56242],[-54.61156,-31.589695],[-54.568354,-31.699645],[-54.538579,-31.733155],[-54.163918,-32.021323],[-54.107594,-32.041553],[-54.04364,-32.034308],[-53.99018,-32.059683],[-53.924621,-32.128201],[-53.857322,-32.165378],[-53.780607,-32.320957],[-53.763212,-32.421462],[-53.681966,-32.519318],[-53.552639,-32.594478],[-53.508779,-32.650933],[-53.245764,-32.748679],[-53.278264,-32.827075],[-53.285435,-32.95163],[-53.382608,-32.961359],[-53.434217,-33.006022],[-53.503554,-33.037374],[-53.539103,-33.087231],[-53.595896,-33.270278],[-53.5547,-33.433583],[-53.620288,-33.480981],[-53.661624,-33.599637],[-53.65541,-33.7044],[-53.63481,-33.74936],[-53.467505,-33.847411],[-53.408218,-33.858323],[-53.288257,-33.826375],[-53.095307,-33.688593],[-52.622967,-33.294956],[-52.523856,-33.172462],[-52.372824,-32.895285],[-52.250654,-32.520365],[-52.12946,-32.321457],[-52.065771,-32.266971],[-51.986441,-32.229002],[-51.875174,-32.103419],[-51.769031,-32.014925],[-51.414964,-31.822049],[-51.186726,-31.660888],[-50.684057,-31.193329],[-50.232758,-30.564892],[-49.941728,-29.884688],[-49.8055,-29.645321],[-49.597516,-29.363491],[-49.382987,-29.122102],[-49.236096,-28.984144],[-48.948973,-28.785444],[-48.733082,-28.687286],[-48.67034,-28.607115],[-48.5953,-28.489752],[-48.590224,-28.419431],[-48.553855,-28.39249],[-48.529353,-28.348592],[-48.53194,-28.201446],[-48.479216,-28.03375],[-48.442806,-28.004739],[-48.422637,-27.953618],[-48.340077,-27.919271],[-48.315646,-27.88421],[-48.316023,-27.805426],[-48.358277,-27.752807],[-48.343759,-27.712334],[-48.303328,-27.690663],[-48.270557,-27.646475],[-48.274172,-27.564828],[-48.237627,-27.508387],[-48.239308,-27.426939],[-48.264295,-27.367544],[-48.208965,-27.285503],[-48.228156,-27.208409],[-48.278602,-27.172237],[-48.317685,-27.099024],[-48.45218,-27.015974],[-48.470275,-26.951339],[-48.508762,-26.893055],[-48.477891,-26.845667],[-48.465882,-26.766842],[-48.482501,-26.728708],[-48.563608,-26.657576],[-48.526659,-26.562165],[-48.479103,-26.536699],[-48.42082,-26.437529],[-48.40117,-26.380063],[-48.417251,-26.319689],[-48.381547,-26.257546],[-48.362575,-26.181743],[-48.369264,-26.12688],[-48.391415,-26.093609],[-48.425108,-26.069519],[-48.486172,-26.057933],[-48.48573,-26.020248],[-48.412244,-25.83573],[-48.364382,-25.84537],[-48.30946,-25.833182],[-48.267059,-25.799378],[-48.244795,-25.73654],[-48.264139,-25.680179],[-48.209073,-25.637943],[-48.174848,-25.574673],[-48.126818,-25.546777],[-48.078775,-25.456704],[-48.012045,-25.463395],[-47.970678,-25.447463],[-47.933907,-25.413086],[-47.919851,-25.375797],[-47.862627,-25.344372],[-47.837773,-25.299452],[-47.838506,-25.250061],[-47.780436,-25.213174],[-47.733918,-25.140166],[-47.733647,-25.097908],[-47.756559,-25.054095],[-47.73551,-25.030404],[-47.522057,-24.865317],[-47.16501,-24.663261],[-47.071275,-24.577179],[-46.928799,-24.49441],[-46.893592,-24.448664],[-46.852758,-24.475451],[-46.795513,-24.481697],[-46.772816,-24.553462],[-46.73863,-24.583208],[-46.694483,-24.598419],[-46.604948,-24.578244],[-46.568834,-24.542435],[-46.554164,-24.50122],[-46.562011,-24.447382],[-46.616615,-24.384645],[-46.689063,-24.372716],[-46.701274,-24.32438],[-46.738174,-24.288064],[-46.434783,-24.133453],[-46.354241,-24.132338],[-46.275635,-24.159252],[-46.184683,-24.13493],[-46.077652,-24.040908],[-46.032279,-23.936912],[-45.921371,-23.884073],[-45.903036,-23.879138],[-45.869828,-23.944526],[-45.829053,-23.969081],[-45.773162,-23.978439],[-45.714548,-23.960107],[-45.67058,-23.912513],[-45.622422,-23.910741],[-45.523606,-24.013212],[-45.480012,-24.037272],[-45.353098,-24.037362],[-45.270846,-24.073932],[-45.193376,-24.062234],[-45.129395,-24.004178],[-45.110055,-23.926999],[-45.050251,-23.900743],[-45.016255,-23.86709],[-44.948991,-23.85097],[-44.904176,-23.804867],[-44.88989,-23.759673],[-44.896197,-23.716531],[-44.967955,-23.640663],[-44.926551,-23.604937],[-44.910791,-23.532899],[-44.816651,-23.528877],[-44.734827,-23.475879],[-44.656335,-23.461993],[-44.585298,-23.473097],[-44.525923,-23.452509],[-44.433264,-23.382273],[-44.392134,-23.321397],[-44.327674,-23.33173],[-44.230475,-23.310567],[-44.163681,-23.335283],[-44.115995,-23.327552],[-44.018897,-23.257376],[-43.983646,-23.209342],[-43.912767,-23.189033],[-43.641498,-23.159288],[-43.565244,-23.189829],[-43.467058,-23.165866],[-43.376785,-23.120748],[-43.197478,-23.181558],[-43.100182,-23.166512],[-43.060241,-23.143033],[-43.030009,-23.086927],[-42.971885,-23.124057],[-42.927047,-23.131846],[-42.850195,-23.105138],[-42.817726,-23.069999],[-42.660358,-23.066303],[-42.589103,-23.040956],[-42.11007,-23.060029],[-42.072699,-23.100796],[-42.025994,-23.119404],[-41.938255,-23.10627],[-41.862339,-23.022738],[-41.863333,-22.958951],[-41.80239,-22.915999],[-41.779407,-22.876282],[-41.717584,-22.857722],[-41.670753,-22.794525],[-41.668722,-22.755541],[-41.708686,-22.687865],[-41.86759,-22.624123],[-41.758074,-22.519155],[-41.70127,-22.528912],[-41.632474,-22.507481],[-41.579084,-22.433296],[-41.581702,-22.369535],[-41.453705,-22.316719],[-41.157433,-22.23113],[-40.931897,-22.104847],[-40.877362,-22.040546],[-40.859211,-21.944522],[-40.908028,-21.720171],[-40.897172,-21.610275],[-40.913322,-21.56086],[-40.945391,-21.527664],[-40.848311,-21.383559],[-40.844701,-21.276182],[-40.765599,-21.192064],[-40.686201,-21.013953],[-40.639277,-20.946559],[-40.570355,-20.934348],[-40.438614,-20.803753],[-40.393253,-20.807821],[-40.318742,-20.771492],[-40.297815,-20.738805],[-40.293125,-20.688743],[-40.270973,-20.663929],[-40.264625,-20.576856],[-40.238501,-20.515452],[-40.092036,-20.256923],[-40.024126,-19.996349],[-39.910785,-19.822629],[-39.847932,-19.776876],[-39.747475,-19.739808],[-39.710475,-19.701764],[-39.597943,-19.436823],[-39.575582,-19.317382],[-39.635768,-18.836554],[-39.605182,-18.491407],[-39.526441,-18.268009],[-39.403284,-18.066684],[-39.359863,-18.021314],[-39.262713,-17.984812],[-39.179182,-17.929439],[-39.155858,-17.877532],[-39.028602,-17.724936],[-39.023151,-17.677442],[-39.076926,-17.577353],[-39.078672,-17.443264],[-39.107851,-17.298508],[-39.099412,-17.184943],[-39.070525,-17.129609],[-39.042275,-16.981989],[-39.001255,-16.933642],[-39.003227,-16.855016],[-39.031808,-16.801245],[-38.997151,-16.732873],[-38.94883,-16.463793],[-38.910751,-16.427596],[-38.897718,-16.391895],[-38.902408,-16.2922],[-38.837263,-16.173407],[-38.8416,-16.121722],[-38.749177,-15.890597],[-38.741338,-15.837542],[-38.824258,-15.644087],[-38.835328,-15.487243],[-38.879396,-15.278358],[-38.885897,-14.985054],[-38.920254,-14.753952],[-38.953219,-14.70547],[-38.950643,-14.641373],[-38.869142,-14.304865],[-38.877494,-14.208173],[-38.816592,-13.935605],[-38.835223,-13.795332],[-38.856039,-13.766629],[-38.80829,-13.728397],[-38.780515,-13.655107],[-38.810873,-13.542498],[-38.780301,-13.451397],[-38.796448,-13.36378],[-38.842036,-13.296206],[-38.593941,-13.120189],[-38.455041,-13.121115],[-38.28407,-13.04135],[-37.955456,-12.6943],[-37.674095,-12.292108],[-37.51204,-12.00429],[-37.310863,-11.58982],[-37.2119,-11.466561],[-37.172245,-11.355099],[-37.070843,-11.235432],[-36.878004,-10.930846],[-36.72,-10.774688],[-36.544162,-10.67277],[-36.316784,-10.579615],[-36.196936,-10.40486],[-36.186383,-10.344623],[-35.956811,-10.136569],[-35.726999,-9.797406],[-35.670167,-9.777298],[-35.605822,-9.725422],[-35.588443,-9.664174],[-35.50628,-9.595277],[-35.410982,-9.482796],[-35.390514,-9.429813],[-35.315674,-9.373243],[-35.217109,-9.253304],[-35.038618,-8.925101],[-34.970097,-8.707105],[-34.921488,-8.658268],[-34.891779,-8.514749],[-34.833041,-8.371939],[-34.835909,-8.289097],[-34.719385,-7.974249],[-34.714565,-7.896318],[-34.730868,-7.822769],[-34.714564,-7.748574],[-34.722566,-7.694327],[-34.700717,-7.643094],[-34.715097,-7.562733],[-34.697884,-7.493014],[-34.685877,-7.168696],[-34.694767,-7.108702],[-34.723469,-7.068019],[-34.722399,-6.952801],[-34.766987,-6.835901],[-34.803141,-6.807193],[-34.829866,-6.648334],[-34.85531,-6.612401],[-34.872068,-6.385029],[-34.924735,-6.289096],[-34.932134,-6.20424],[-34.990037,-6.133974],[-35.001997,-5.977051],[-35.04701,-5.900609],[-35.090572,-5.730972],[-35.084285,-5.694276],[-35.145416,-5.480992],[-35.302368,-5.190822],[-35.41336,-5.079505],[-35.571192,-5.016849],[-35.966873,-4.935376],[-36.046774,-4.94515],[-36.166332,-4.989727],[-36.365381,-4.980797],[-36.473961,-4.958633],[-36.674707,-4.980448],[-36.736633,-4.946895],[-36.816179,-4.862584],[-36.938023,-4.813748],[-36.962455,-4.746334],[-36.994459,-4.721239],[-37.075694,-4.714457],[-37.114677,-4.735458],[-37.148325,-4.793315],[-37.194293,-4.686353],[-37.250112,-4.623294],[-37.470557,-4.523199],[-37.539543,-4.528903],[-37.637064,-4.436357],[-37.705938,-4.314635],[-37.810707,-4.277052],[-37.974665,-4.135466],[-38.187307,-3.878715],[-38.276184,-3.816171],[-38.379354,-3.640866],[-38.408256,-3.615665],[-38.606086,-3.581738],[-38.68929,-3.524007],[-38.761989,-3.446789],[-38.835821,-3.415736],[-38.919833,-3.316814],[-39.019728,-3.29245],[-39.091268,-3.241736],[-39.146367,-3.169725],[-39.204391,-3.125675],[-39.413496,-3.043634],[-39.578144,-2.926655],[-39.683655,-2.889899],[-39.86418,-2.774558],[-39.997526,-2.732345],[-40.181613,-2.70446],[-40.404947,-2.705341],[-40.489514,-2.677237],[-40.548023,-2.687422],[-40.638676,-2.740134],[-40.821829,-2.758936],[-40.904801,-2.751754],[-41.027842,-2.785493],[-41.294033,-2.781952],[-41.345361,-2.810157],[-41.456678,-2.790577],[-41.568547,-2.792409],[-41.691471,-2.702185],[-41.741364,-2.646084],[-41.795432,-2.622],[-41.973414,-2.612592],[-42.040226,-2.583793],[-42.262664,-2.568439],[-42.342075,-2.61151],[-42.423451,-2.604347],[-42.482073,-2.572682],[-42.535954,-2.573114],[-42.66583,-2.464455],[-42.793891,-2.439717],[-43.197779,-2.25836],[-43.312492,-2.22994],[-43.44911,-2.234468],[-43.495119,-2.249816],[-43.516171,-2.195317],[-43.551201,-2.163617],[-43.60578,-2.144749],[-43.667889,-2.152033],[-43.775278,-2.199464],[-43.811584,-2.235636],[-43.824877,-2.27682],[-43.937197,-2.357842],[-43.978973,-2.31251],[-44.080686,-2.296494],[-44.145575,-2.312344],[-44.257491,-2.37205],[-44.259526,-2.28625],[-44.295025,-2.185254],[-44.362387,-2.087281],[-44.378151,-1.956851],[-44.447263,-1.757917],[-44.538181,-1.654423],[-44.532529,-1.589128],[-44.549477,-1.552828],[-44.641727,-1.467213],[-44.679135,-1.388608],[-44.764134,-1.34352],[-44.776977,-1.245962],[-44.849489,-1.178664],[-44.924413,-1.159164],[-45.016713,-1.162838],[-45.054603,-1.183508],[-45.115261,-1.25637],[-45.162911,-1.267671],[-45.204186,-1.305134],[-45.215658,-1.276222],[-45.280385,-1.223882],[-45.4323,-1.185903],[-45.468137,-1.124699],[-45.59135,-1.0229],[-45.755852,-1.008076],[-45.780717,-0.973662],[-45.850245,-0.942375],[-45.919763,-0.958236],[-46.004276,-0.945293],[-46.032621,-0.926251],[-46.063734,-0.847906],[-46.15231,-0.790008],[-46.199797,-0.778058],[-46.253514,-0.788583],[-46.323203,-0.826037],[-46.389723,-0.764103],[-46.514525,-0.768313],[-46.595599,-0.696176],[-46.751835,-0.680235],[-46.83088,-0.633141],[-46.881977,-0.636291],[-46.935863,-0.603531],[-47.01066,-0.604977],[-47.058183,-0.570885],[-47.134714,-0.569319],[-47.154741,-0.545559],[-47.277425,-0.489459],[-47.366429,-0.494205],[-47.441751,-0.476768],[-47.509206,-0.492011],[-47.566923,-0.470637],[-47.616253,-0.472686],[-47.664872,-0.434],[-47.708684,-0.426887],[-47.960549,-0.467209],[-48.003904,-0.50387],[-48.023805,-0.549639],[-48.084612,-0.558238],[-48.133485,-0.588699],[-48.249097,-0.719965],[-48.324345,-0.776954],[-48.376375,-0.710591],[-48.36542,-0.531753],[-48.347855,-0.470527],[-48.288368,-0.390502],[-48.269514,-0.283086],[-48.303482,-0.198141],[-48.37155,-0.135738],[-48.417388,-0.11992],[-48.636404,-0.12606],[-48.674558,-0.077833],[-48.735436,-0.058062],[-48.815086,-0.072792],[-48.899849,-0.043172],[-49.045023,-0.056714],[-49.155549,-0.021652],[-49.251628,-0.039843],[-49.250226,0.014982],[-49.282715,0.099158],[-49.424197,0.239736],[-49.389992,0.293127],[-49.38309,0.353187],[-49.421382,0.440127],[-49.451323,0.466934],[-49.534407,0.516288],[-49.593052,0.52598],[-49.798606,0.458979],[-49.873705,0.450804],[-49.949479,0.471793],[-49.922374,0.559397],[-49.92828,0.613415],[-49.953531,0.668932],[-49.999362,0.715187],[-49.91151,0.800165],[-49.881584,0.872863],[-49.800499,0.954799],[-49.781226,1.015205],[-49.77654,1.16507],[-49.796101,1.275031],[-49.77757,1.328896],[-49.769927,1.453475],[-49.808513,1.683506],[-49.835849,1.753537],[-49.890577,1.80409],[-50.119144,1.910114],[-50.21613,1.917989],[-50.21693,1.993297],[-50.263209,2.10107],[-50.374132,2.250368],[-50.460214,2.292418],[-50.558672,2.284194],[-50.600187,2.255779],[-50.616233,2.282106],[-50.666433,2.476896],[-50.728641,2.581391],[-50.786857,2.784043],[-50.843701,2.875904],[-50.88675,2.986322],[-50.933662,3.1577],[-50.937091,3.260964],[-50.996603,3.435234],[-50.976137,3.546919],[-50.979308,3.919141],[-51.00471,3.969884],[-51.070875,4.014449],[-51.102588,4.157668],[-51.198453,4.315255],[-51.317269,4.439513],[-51.441087,4.535063],[-51.629183,4.616376],[-51.700458,4.595872],[-51.7264,4.568205],[-51.774489,4.47033],[-51.785259,4.358317],[-51.77461,4.290398],[-51.736364,4.205177],[-51.748325,4.120269],[-51.845613,4.057621],[-51.876751,4.013741],[-51.888534,3.949928],[-51.986537,3.866964],[-52.055229,3.773562],[-52.096101,3.668188],[-52.288089,3.355384],[-52.370048,3.300429],[-52.42109,3.22849],[-52.458861,3.136819],[-52.448322,3.08007],[-52.47274,3.016592],[-52.573909,2.829957],[-52.587524,2.775562],[-52.648809,2.691668],[-52.663543,2.57199],[-52.701787,2.542218],[-52.748833,2.459306],[-52.922137,2.368031],[-52.988694,2.285433],[-53.060146,2.316554],[-53.137692,2.32008],[-53.249825,2.424979],[-53.327154,2.460881],[-53.392712,2.452915],[-53.455811,2.397855],[-53.538402,2.371283],[-53.632818,2.406845],[-53.702212,2.475087],[-53.764706,2.486749],[-53.832691,2.4689],[-53.90248,2.421029],[-53.993993,2.387932],[-54.037404,2.331972],[-54.197136,2.288448],[-54.395352,2.313342],[-54.579407,2.441988],[-54.607794,2.520776],[-54.644751,2.546481],[-54.752438,2.579067],[-54.822955,2.549593],[-54.870735,2.650042],[-54.901347,2.676951],[-54.989081,2.697724],[-55.029285,2.695871],[-55.084495,2.665603],[-55.190968,2.665794],[-55.264419,2.619114],[-55.360237,2.615731],[-55.436212,2.546801],[-55.572433,2.545585],[-55.676152,2.525465],[-55.739383,2.56056],[-55.795831,2.566823],[-55.896909,2.634599],[-55.983334,2.636532],[-56.068446,2.590543],[-56.11405,2.476296],[-56.171196,2.443039],[-56.245499,2.264808],[-56.21445,2.190307],[-56.078408,2.07419],[-56.040249,2.012435],[-56.036952,1.95803],[-56.073545,1.960167],[-56.150598,2.006244],[-56.245747,2.006275],[-56.294191,2.036441],[-56.43582,2.062711],[-56.491445,2.061705],[-56.553862,2.032375],[-56.624774,2.05375],[-56.691142,2.030187],[-56.744823,2.031146],[-56.818768,1.994469],[-56.915007,2.038004],[-56.967054,2.029362],[-57.031469,2.11806],[-57.094385,2.13575],[-57.149697,2.130756],[-57.230919,2.082548],[-57.29419,2.104638],[-57.33428,2.101199],[-57.418005,2.06013],[-57.517769,1.972758],[-57.540352,1.892531],[-57.583917,1.855997],[-57.60589,1.810573],[-57.698039,1.83839],[-57.817804,1.831558],[-57.952939,1.763207],[-58.038473,1.755019],[-58.09593,1.702313],[-58.109131,1.652583],[-58.165546,1.676015],[-58.249795,1.676174],[-58.32354,1.704769],[-58.365941,1.696029],[-58.489296,1.57511],[-58.582656,1.541462],[-58.607782,1.504092],[-58.611134,1.392197],[-58.687915,1.40474],[-58.740965,1.394904],[-58.806928,1.333039],[-58.843619,1.392439],[-58.877776,1.415578],[-59.027107,1.435675],[-59.184751,1.481457],[-59.2554,1.589809],[-59.336948,1.64224],[-59.460716,1.794252],[-59.544205,1.837122],[-59.563591,1.909035],[-59.588221,1.946015],[-59.630081,1.970794],[-59.616185,2.006557],[-59.623722,2.313058],[-59.667805,2.370586],[-59.786473,2.42682],[-59.801272,2.526927],[-59.885153,2.723664],[-59.88269,2.824609],[-59.846581,2.962382],[-59.84597,3.02788],[-59.807433,3.076309],[-59.769747,3.221525],[-59.708259,3.31078],[-59.704094,3.539498],[-59.586586,3.633506],[-59.560341,3.694511],[-59.481625,3.770628],[-59.472211,3.834129],[-59.449981,3.848741],[-59.411116,3.927966],[-59.412554,3.968834],[-59.464411,4.054755],[-59.521667,4.097163],[-59.518228,4.161211],[-59.537148,4.19856],[-59.607702,4.244737],[-59.564381,4.372126],[-59.588779,4.443772],[-59.743006,4.558335],[-59.966242,4.615794],[-59.92179,4.682155],[-59.918139,4.801949],[-59.867256,5.035544],[-59.878888,5.125216],[-60.010268,5.227889],[-60.077288,5.337633],[-60.216511,5.379289],[-60.352042,5.320663],[-60.382725,5.329245],[-60.460589,5.30908],[-60.539907,5.310328],[-60.705361,5.337156],[-60.783825,5.309349],[-60.822712,5.265978],[-60.842179,5.194201],[-60.810363,5.1261],[-60.759133,5.097754],[-60.746838,5.029529],[-60.712184,4.973999],[-60.811247,4.856021],[-60.961216,4.806345],[-61.048684,4.690675],[-61.056784,4.631254],[-61.144256,4.616188],[-61.221684,4.640697],[-61.316177,4.647745],[-61.372975,4.630737],[-61.404146,4.606071],[-61.431247,4.544363],[-61.520224,4.527387],[-61.602724,4.465681],[-61.629184,4.365353],[-61.733564,4.376399],[-61.773384,4.365377],[-61.834708,4.339588],[-61.921415,4.266105],[-61.986261,4.287696],[-62.117356,4.253843],[-62.165344,4.212703],[-62.359725,4.280301],[-62.438226,4.289968],[-62.506073,4.27683],[-62.603533,4.216795],[-62.647887,4.152922],[-62.789599,4.1347],[-62.828044,4.108245],[-62.868423,4.046234],[-62.895042,3.902484],[-62.877796,3.835583],[-62.957631,3.771407],[-63.017158,3.857948],[-63.105246,3.909499],[-63.100189,3.963591],[-63.118493,4.00899],[-63.189536,4.057595],[-63.316221,4.08894],[-63.421643,4.084296],[-63.463122,4.079301],[-63.534477,4.022268],[-63.608463,4.099536],[-63.689614,4.125725],[-63.770865,4.086219],[-63.791942,4.042881],[-63.859353,4.056794],[-63.955828,4.027045],[-63.97526,4.034595],[-64.015299,4.132004],[-64.052574,4.17818],[-64.133147,4.227869],[-64.207895,4.227605],[-64.28466,4.250578],[-64.549383,4.221164],[-64.58434,4.286335],[-64.64827,4.341298],[-64.737376,4.383279],[-64.796752,4.392701],[-64.855331,4.37665],[-64.903455,4.330614],[-64.925537,4.281509],[-64.927759,4.20418],[-64.898091,4.116137],[-64.815054,4.049771],[-64.762106,3.946992],[-64.671547,3.858146],[-64.564056,3.717134],[-64.513696,3.683937],[-64.401945,3.646277],[-64.292479,3.525084],[-64.236579,3.31983],[-64.264326,3.249693],[-64.306609,3.215584],[-64.326287,3.171716],[-64.324276,3.079423],[-64.312695,3.042506],[-64.265991,2.995603],[-64.242613,2.920424],[-64.184474,2.883527],[-64.166076,2.814724],[-64.11096,2.731271],[-64.107217,2.664892],[-64.144576,2.616246],[-64.167473,2.519043],[-64.162338,2.471371],[-64.134886,2.425688],[-64.061184,2.365669],[-63.935806,2.349609],[-63.842546,2.370178],[-63.777477,2.338782],[-63.61466,2.335615],[-63.526923,2.316432],[-63.472082,2.285043],[-63.491973,2.244078],[-63.634374,2.220301],[-63.815895,2.096744],[-63.978489,2.098393],[-64.069035,2.058898],[-64.147739,1.9959],[-64.164429,1.961944],[-64.185915,1.680553],[-64.235449,1.660024],[-64.292813,1.605872],[-64.352952,1.628051],[-64.441811,1.62505],[-64.49292,1.578699],[-64.604941,1.51976],[-64.709229,1.396903],[-64.824112,1.415842],[-65.018184,1.321548],[-65.067461,1.25832],[-65.123043,1.262157],[-65.162051,1.247052],[-65.245001,1.184424],[-65.27235,1.048087],[-65.369186,1.031507],[-65.425174,0.977059],[-65.46277,1.045432],[-65.510281,1.087928],[-65.594723,1.119558],[-65.66661,1.118042],[-65.796277,1.091222],[-65.836562,1.056576],[-65.943567,1.019659],[-66.036475,0.917203],[-66.091749,0.910136],[-66.150682,0.874488],[-66.227868,0.885395],[-66.291145,0.871127],[-66.817281,1.328256],[-66.887382,1.333132],[-66.981926,1.307222],[-66.966652,1.473441],[-66.974947,1.637719],[-67.003197,1.780055],[-67.073916,1.913286],[-67.130518,1.953054],[-67.20029,1.9655],[-67.244904,2.243208],[-67.314962,2.323315],[-67.379023,2.34978],[-67.458597,2.345243],[-67.509953,2.315222],[-67.625504,2.221848],[-67.683734,2.130045],[-67.776329,2.145732],[-67.836344,2.123624],[-67.929444,2.003494],[-67.978103,1.982054],[-68.022157,2.002324],[-68.099482,2.081805],[-68.166283,2.09122],[-68.221378,2.07909],[-68.331301,1.989104],[-68.372765,1.838158],[-69.368357,1.836397],[-69.552855,1.882879],[-69.662531,1.836566],[-69.716905,1.841124],[-69.804295,1.817009],[-69.844205,1.824851],[-69.918859,1.793177],[-69.952763,1.716521],[-69.943253,1.035825],[-69.915004,0.998447],[-69.833137,0.96017],[-69.789514,0.958711],[-69.743312,0.978878],[-69.673603,0.965335],[-69.620071,0.980509],[-69.49888,0.967195],[-69.423623,0.936981],[-69.341055,0.964722],[-69.320775,0.954263],[-69.271965,0.842264],[-69.292944,0.755525],[-69.330718,0.749124],[-69.369622,0.796001],[-69.43255,0.837077],[-69.4926,0.840872],[-69.63109,0.765517],[-69.720898,0.764779],[-69.823472,0.697154],[-69.942776,0.69363],[-70.087617,0.661595],[-70.12641,0.634625],[-70.153206,0.564955],[-70.148842,-0.102064],[-70.164879,-0.158045],[-70.152763,-0.232064],[-69.975022,-0.422944],[-69.897682,-0.453673],[-69.710515,-0.580805],[-69.694859,-0.652935],[-69.726257,-0.709305],[-69.725435,-0.787229],[-69.657663,-0.905879],[-69.629656,-0.929438],[-69.618806,-0.975544],[-69.550114,-1.041515],[-69.51594,-1.134017],[-69.535456,-1.254826],[-69.516381,-1.328827],[-69.553725,-1.444746],[-70.031698,-4.158266],[-70.041755,-4.175118],[-70.108893,-4.150523],[-70.179341,-4.17113],[-70.207944,-4.096838],[-70.309871,-4.037414],[-70.653429,-4.021897],[-70.855752,-4.089545],[-70.91936,-4.140887],[-70.972442,-4.242042],[-71.136989,-4.275841],[-71.295858,-4.281762],[-71.363699,-4.321579],[-71.511433,-4.331295],[-71.588862,-4.367439],[-71.701289,-4.376171],[-71.77314,-4.364449],[-71.944992,-4.41552],[-71.996969,-4.454184],[-72.027983,-4.507755],[-72.093579,-4.529303],[-72.170603,-4.611209],[-72.423628,-4.712163],[-72.485955,-4.788227],[-72.537864,-4.807859],[-72.675532,-4.907984],[-72.704103,-4.944843],[-72.791151,-4.964769],[-72.939073,-5.062386],[-72.985278,-5.116275],[-72.99522,-5.150942],[-72.97978,-5.256702],[-73.049451,-5.39953],[-73.06671,-5.464244],[-73.064049,-5.549225],[-73.096762,-5.654779],[-73.251672,-5.816778],[-73.345568,-6.027738],[-73.360528,-6.120099],[-73.353186,-6.175151],[-73.316289,-6.266405],[-73.267611,-6.32888],[-73.235214,-6.432778],[-73.288924,-6.480625],[-73.411277,-6.504129],[-73.462638,-6.548445],[-73.589001,-6.597826],[-73.710958,-6.679016],[-73.794907,-6.776334],[-73.855539,-6.901835],[-73.862876,-6.944417],[-73.845582,-7.002893],[-73.891504,-7.050596],[-73.909261,-7.097533],[-73.906107,-7.138096],[-73.852628,-7.234169],[-73.900854,-7.252132],[-73.984396,-7.24364],[-74.050135,-7.282609],[-74.07513,-7.367822],[-74.044873,-7.442896],[-74.070915,-7.464075]],[[-45.166299,-23.680781],[-45.159378,-23.678431],[-45.157264,-23.679055],[-45.144647,-23.677581],[-45.133294,-23.677859],[-45.129142,-23.676117],[-45.133222,-23.683877],[-45.163621,-23.684519],[-45.164832,-23.682445],[-45.166299,-23.680781]],[[-51.908061,-31.712892],[-51.888333,-31.638152],[-51.878307,-31.462405],[-51.858779,-31.444149],[-51.808548,-31.436431],[-51.751248,-31.391667],[-51.550779,-31.359221],[-51.495361,-31.291543],[-51.506416,-31.221714],[-51.394153,-31.18777],[-51.330299,-31.1357],[-51.321896,-31.059987],[-51.36967,-30.984304],[-51.290574,-30.958012],[-51.257365,-30.918657],[-51.196333,-30.890184],[-51.159153,-30.823738],[-51.179145,-30.603752],[-51.09562,-30.596096],[-51.056586,-30.568312],[-51.026609,-30.507482],[-50.963838,-30.540352],[-50.882383,-30.550278],[-50.809462,-30.511902],[-50.806526,-30.652817],[-50.83036,-30.727614],[-50.946054,-30.791739],[-51.018462,-30.797972],[-51.057163,-30.822171],[-51.090777,-30.898179],[-51.080729,-30.955528],[-51.108482,-30.96796],[-51.167452,-30.953995],[-51.211646,-30.961701],[-51.280474,-31.01734],[-51.3047,-31.117319],[-51.283418,-31.282763],[-51.333612,-31.387976],[-51.349219,-31.40312],[-51.403266,-31.381858],[-51.490064,-31.397395],[-51.731802,-31.677593],[-51.812182,-31.680926],[-51.908061,-31.712892]],[[-52.916649,-32.678325],[-52.880128,-32.628482],[-52.86787,-32.568607],[-52.714122,-32.52595],[-52.839685,-32.79142],[-52.873471,-32.76439],[-52.88599,-32.710412],[-52.916649,-32.678325]]],[[[-38.824154,-17.955993],[-38.816995,-18.015315],[-38.78832,-18.051381],[-38.735063,-18.08331],[-38.69218,-18.088581],[-38.611242,-18.051152],[-38.578624,-17.973091],[-38.607887,-17.892925],[-38.689738,-17.854575],[-38.775796,-17.875911],[-38.808284,-17.907337],[-38.824154,-17.955993]]],[[[-45.748307,-24.009207],[-45.799135,-24.044825],[-45.819577,-24.081385],[-45.810381,-24.161809],[-45.782061,-24.19393],[-45.742694,-24.214045],[-45.654614,-24.208677],[-45.555954,-24.135449],[-45.537695,-24.062213],[-45.577345,-23.99471],[-45.664361,-23.967423],[-45.748307,-24.009207]]],[[[-46.260226,-24.238433],[-46.300273,-24.310121],[-46.272925,-24.389997],[-46.191212,-24.428739],[-46.101604,-24.400131],[-46.071127,-24.361188],[-46.062248,-24.313917],[-46.103659,-24.236881],[-46.180819,-24.210424],[-46.260226,-24.238433]]]]}}]}
